QIANFAN-65              
1 62795U 25016L   25273.33250792  .00000069  00000+0  88866-4 0  9997
2 62795  88.9734 110.6567 0013381 188.5309 171.5617 13.50970062 37333
QIANFAN-66              
1 62796U 25016M   25273.28731389  .00000081  00000+0  10650-3 0  9997
2 62796  88.9753 110.6172 0014634 184.6567 175.4450 13.50965238 37373
QIANFAN-67              
1 62797U 25016N   25273.29130319  .00000056  00000+0  67529-4 0  9995
2 62797  88.9744 110.6494 0014398 191.6998 168.3821 13.50966687 37343
QIANFAN-68              
1 62798U 25016P   25266.46913683  .00000070  00000+0  89224-4 0  9992
2 62798  88.9758 111.3962 0013928 210.6591 149.3747 13.50984556 36403
QIANFAN-69              
1 62799U 25016Q   25273.29959093  .00000058  00000+0  71777-4 0  9997
2 62799  88.9727 110.5763 0015208 191.2926 168.7887 13.50966743 37363
QIANFAN-70              
1 62800U 25016R   25273.31596468  .00000096  00000+0  12961-3 0  9997
2 62800  88.9747 110.6977 0015094 181.2317 178.8799 13.50971512 37322
QIANFAN-71              
1 62801U 25016S   25273.31193522  .00000071  00000+0  91440-4 0  9995
2 62801  88.9742 110.6821 0015032 194.9265 165.1444 13.50970424 37328
QIANFAN-72              
1 62802U 25016T   25273.32696885  .00000089  00000+0  12144-3 0  9999
2 62802  88.9732 110.7007 0018355 203.3011 156.7309 13.49486761 37319
